STARLINK-30803          
1 58157U 23166H   26068.72492175  .00000230  00000+0  19910-4 0  9991
2 58157  53.1605 219.5071 0001194  81.5677 278.5459 15.30189116133037
HAWK-11C                
1 62381U 24247E   26068.51221537  .00009223  00000+0  33290-3 0  9992
2 62381  45.0045 114.8762 0005900 329.7040  30.3502 15.28848020 67743
